OBJECT C                
1 57582U 23117C   25176.19786083  .00004745  00000+0  18606-3 0  9997
2 57582  97.4450 251.0770 0010283  73.4590 286.7777 15.26199923103894
